ORBCOMM FM33 [-]        
1 25983U 99065D   23272.66085802  .00001674  00000+0  60963-3 0  9991
2 25983  45.0290  89.4205 0009222 153.5614 330.9960 14.36761160245867
ORBCOMM FM36 [-]        
1 25984U 99065E   23273.38846623  .00001468  00000+0  56397-3 0  9995
2 25984  45.0396 167.6375 0004292  27.8602 332.2475 14.34649433245046
ORBCOMM FM35 [+]        
1 25985U 99065F   23273.44566578  .00001388  00000+0  53893-3 0  9990
2 25985  45.0395 169.4196 0001985 138.2491 221.8508 14.34357743245057
ORBCOMM FM34 [-]        
1 25986U 99065G   23273.40923411  .00001537  00000+0  59224-3 0  9990
2 25986  45.0391 170.0597 0003497  71.1263 288.9963 14.34303556245017
ORBCOMM FM38 [-]        
1 33060U 08031A   23272.47567512  .00003133  00000+0  47881-3 0  9997
2 33060  48.4416  48.7968 0006234 236.6504 123.3813 14.76071807822019
ORBCOMM FM41 [-]        
1 33061U 08031B   23272.91600348  .00002990  00000+0  46070-3 0  9991
2 33061  48.4450  52.8394 0005329 227.0859 276.8736 14.75840103821589
ORBCOMM FM29 [-]        
1 33062U 08031C   23272.75302492  .00003158  00000+0  48635-3 0  9999
2 33062  48.4400  61.5818 0007262 223.1348 274.1556 14.75715742821470
ORBCOMM FM39 [-]        
1 33063U 08031D   23272.96134814  .00002687  00000+0  42629-3 0  9997
2 33063  48.4407  79.5787 0008021 201.5167 158.5410 14.74881751821225
