<?xml version="1.0" encoding="UTF-8"?>
<ndm xmlns:xsi="http://www.w3.org/2001/XMLSchema-instance" xsi:noNamespaceSchemaLocation="https://sanaregistry.org/r/ndmxml_unqualified/ndmxml-2.0.0-master-2.0.xsd">
<omm id="CCSDS_OMM_VERS" version="2.0">
<header><CREATION_DATE/><ORIGINATOR/></header><body><segment><metadata><OBJECT_NAME>ORBCOMM FM33 [-]</OBJECT_NAME><OBJECT_ID>1999-065D</OBJECT_ID><CENTER_NAME>EARTH</CENTER_NAME><REF_FRAME>TEME</REF_FRAME><TIME_SYSTEM>UTC</TIME_SYSTEM><MEAN_ELEMENT_THEORY>SGP4</MEAN_ELEMENT_THEORY></metadata><data><meanElements><EPOCH>2023-09-29T15:51:38.132928</EPOCH><MEAN_MOTION>14.36761160</MEAN_MOTION><ECCENTRICITY>.0009222</ECCENTRICITY><INCLINATION>45.0290</INCLINATION><RA_OF_ASC_NODE>89.4205</RA_OF_ASC_NODE><ARG_OF_PERICENTER>153.5614</ARG_OF_PERICENTER><MEAN_ANOMALY>330.9960</MEAN_ANOMALY></meanElements><tleParameters><EPHEMERIS_TYPE>0</EPHEMERIS_TYPE><CLASSIFICATION_TYPE>U</CLASSIFICATION_TYPE><NORAD_CAT_ID>25983</NORAD_CAT_ID><ELEMENT_SET_NO>999</ELEMENT_SET_NO><REV_AT_EPOCH>24586</REV_AT_EPOCH><BSTAR>.60963E-3</BSTAR><MEAN_MOTION_DOT>.1674E-4</MEAN_MOTION_DOT><MEAN_MOTION_DDOT>0</MEAN_MOTION_DDOT></tleParameters></data></segment></body></omm>
<omm id="CCSDS_OMM_VERS" version="2.0">
<header><CREATION_DATE/><ORIGINATOR/></header><body><segment><metadata><OBJECT_NAME>ORBCOMM FM36 [-]</OBJECT_NAME><OBJECT_ID>1999-065E</OBJECT_ID><CENTER_NAME>EARTH</CENTER_NAME><REF_FRAME>TEME</REF_FRAME><TIME_SYSTEM>UTC</TIME_SYSTEM><MEAN_ELEMENT_THEORY>SGP4</MEAN_ELEMENT_THEORY></metadata><data><meanElements><EPOCH>2023-09-30T09:19:23.482272</EPOCH><MEAN_MOTION>14.34649433</MEAN_MOTION><ECCENTRICITY>.0004292</ECCENTRICITY><INCLINATION>45.0396</INCLINATION><RA_OF_ASC_NODE>167.6375</RA_OF_ASC_NODE><ARG_OF_PERICENTER>27.8602</ARG_OF_PERICENTER><MEAN_ANOMALY>332.2475</MEAN_ANOMALY></meanElements><tleParameters><EPHEMERIS_TYPE>0</EPHEMERIS_TYPE><CLASSIFICATION_TYPE>U</CLASSIFICATION_TYPE><NORAD_CAT_ID>25984</NORAD_CAT_ID><ELEMENT_SET_NO>999</ELEMENT_SET_NO><REV_AT_EPOCH>24504</REV_AT_EPOCH><BSTAR>.56397E-3</BSTAR><MEAN_MOTION_DOT>.1468E-4</MEAN_MOTION_DOT><MEAN_MOTION_DDOT>0</MEAN_MOTION_DDOT></tleParameters></data></segment></body></omm>
<omm id="CCSDS_OMM_VERS" version="2.0">
<header><CREATION_DATE/><ORIGINATOR/></header><body><segment><metadata><OBJECT_NAME>ORBCOMM FM35 [+]</OBJECT_NAME><OBJECT_ID>1999-065F</OBJECT_ID><CENTER_NAME>EARTH</CENTER_NAME><REF_FRAME>TEME</REF_FRAME><TIME_SYSTEM>UTC</TIME_SYSTEM><MEAN_ELEMENT_THEORY>SGP4</MEAN_ELEMENT_THEORY></metadata><data><meanElements><EPOCH>2023-09-30T10:41:45.523392</EPOCH><MEAN_MOTION>14.34357743</MEAN_MOTION><ECCENTRICITY>.0001985</ECCENTRICITY><INCLINATION>45.0395</INCLINATION><RA_OF_ASC_NODE>169.4196</RA_OF_ASC_NODE><ARG_OF_PERICENTER>138.2491</ARG_OF_PERICENTER><MEAN_ANOMALY>221.8508</MEAN_ANOMALY></meanElements><tleParameters><EPHEMERIS_TYPE>0</EPHEMERIS_TYPE><CLASSIFICATION_TYPE>U</CLASSIFICATION_TYPE><NORAD_CAT_ID>25985</NORAD_CAT_ID><ELEMENT_SET_NO>999</ELEMENT_SET_NO><REV_AT_EPOCH>24505</REV_AT_EPOCH><BSTAR>.53893E-3</BSTAR><MEAN_MOTION_DOT>.1388E-4</MEAN_MOTION_DOT><MEAN_MOTION_DDOT>0</MEAN_MOTION_DDOT></tleParameters></data></segment></body></omm>
<omm id="CCSDS_OMM_VERS" version="2.0">
<header><CREATION_DATE/><ORIGINATOR/></header><body><segment><metadata><OBJECT_NAME>ORBCOMM FM34 [-]</OBJECT_NAME><OBJECT_ID>1999-065G</OBJECT_ID><CENTER_NAME>EARTH</CENTER_NAME><REF_FRAME>TEME</REF_FRAME><TIME_SYSTEM>UTC</TIME_SYSTEM><MEAN_ELEMENT_THEORY>SGP4</MEAN_ELEMENT_THEORY></metadata><data><meanElements><EPOCH>2023-09-30T09:49:17.827104</EPOCH><MEAN_MOTION>14.34303556</MEAN_MOTION><ECCENTRICITY>.0003497</ECCENTRICITY><INCLINATION>45.0391</INCLINATION><RA_OF_ASC_NODE>170.0597</RA_OF_ASC_NODE><ARG_OF_PERICENTER>71.1263</ARG_OF_PERICENTER><MEAN_ANOMALY>288.9963</MEAN_ANOMALY></meanElements><tleParameters><EPHEMERIS_TYPE>0</EPHEMERIS_TYPE><CLASSIFICATION_TYPE>U</CLASSIFICATION_TYPE><NORAD_CAT_ID>25986</NORAD_CAT_ID><ELEMENT_SET_NO>999</ELEMENT_SET_NO><REV_AT_EPOCH>24501</REV_AT_EPOCH><BSTAR>.59224E-3</BSTAR><MEAN_MOTION_DOT>.1537E-4</MEAN_MOTION_DOT><MEAN_MOTION_DDOT>0</MEAN_MOTION_DDOT></tleParameters></data></segment></body></omm>
<omm id="CCSDS_OMM_VERS" version="2.0">
<header><CREATION_DATE/><ORIGINATOR/></header><body><segment><metadata><OBJECT_NAME>ORBCOMM FM38 [-]</OBJECT_NAME><OBJECT_ID>2008-031A</OBJECT_ID><CENTER_NAME>EARTH</CENTER_NAME><REF_FRAME>TEME</REF_FRAME><TIME_SYSTEM>UTC</TIME_SYSTEM><MEAN_ELEMENT_THEORY>SGP4</MEAN_ELEMENT_THEORY></metadata><data><meanElements><EPOCH>2023-09-29T11:24:58.330368</EPOCH><MEAN_MOTION>14.76071807</MEAN_MOTION><ECCENTRICITY>.0006234</ECCENTRICITY><INCLINATION>48.4416</INCLINATION><RA_OF_ASC_NODE>48.7968</RA_OF_ASC_NODE><ARG_OF_PERICENTER>236.6504</ARG_OF_PERICENTER><MEAN_ANOMALY>123.3813</MEAN_ANOMALY></meanElements><tleParameters><EPHEMERIS_TYPE>0</EPHEMERIS_TYPE><CLASSIFICATION_TYPE>U</CLASSIFICATION_TYPE><NORAD_CAT_ID>33060</NORAD_CAT_ID><ELEMENT_SET_NO>999</ELEMENT_SET_NO><REV_AT_EPOCH>82201</REV_AT_EPOCH><BSTAR>.47881E-3</BSTAR><MEAN_MOTION_DOT>.3133E-4</MEAN_MOTION_DOT><MEAN_MOTION_DDOT>0</MEAN_MOTION_DDOT></tleParameters></data></segment></body></omm>
<omm id="CCSDS_OMM_VERS" version="2.0">
<header><CREATION_DATE/><ORIGINATOR/></header><body><segment><metadata><OBJECT_NAME>ORBCOMM FM41 [-]</OBJECT_NAME><OBJECT_ID>2008-031B</OBJECT_ID><CENTER_NAME>EARTH</CENTER_NAME><REF_FRAME>TEME</REF_FRAME><TIME_SYSTEM>UTC</TIME_SYSTEM><MEAN_ELEMENT_THEORY>SGP4</MEAN_ELEMENT_THEORY></metadata><data><meanElements><EPOCH>2023-09-29T21:59:02.700672</EPOCH><MEAN_MOTION>14.75840103</MEAN_MOTION><ECCENTRICITY>.0005329</ECCENTRICITY><INCLINATION>48.4450</INCLINATION><RA_OF_ASC_NODE>52.8394</RA_OF_ASC_NODE><ARG_OF_PERICENTER>227.0859</ARG_OF_PERICENTER><MEAN_ANOMALY>276.8736</MEAN_ANOMALY></meanElements><tleParameters><EPHEMERIS_TYPE>0</EPHEMERIS_TYPE><CLASSIFICATION_TYPE>U</CLASSIFICATION_TYPE><NORAD_CAT_ID>33061</NORAD_CAT_ID><ELEMENT_SET_NO>999</ELEMENT_SET_NO><REV_AT_EPOCH>82158</REV_AT_EPOCH><BSTAR>.4607E-3</BSTAR><MEAN_MOTION_DOT>.299E-4</MEAN_MOTION_DOT><MEAN_MOTION_DDOT>0</MEAN_MOTION_DDOT></tleParameters></data></segment></body></omm>
<omm id="CCSDS_OMM_VERS" version="2.0">
<header><CREATION_DATE/><ORIGINATOR/></header><body><segment><metadata><OBJECT_NAME>ORBCOMM FM29 [-]</OBJECT_NAME><OBJECT_ID>2008-031C</OBJECT_ID><CENTER_NAME>EARTH</CENTER_NAME><REF_FRAME>TEME</REF_FRAME><TIME_SYSTEM>UTC</TIME_SYSTEM><MEAN_ELEMENT_THEORY>SGP4</MEAN_ELEMENT_THEORY></metadata><data><meanElements><EPOCH>2023-09-29T18:04:21.353088</EPOCH><MEAN_MOTION>14.75715742</MEAN_MOTION><ECCENTRICITY>.0007262</ECCENTRICITY><INCLINATION>48.4400</INCLINATION><RA_OF_ASC_NODE>61.5818</RA_OF_ASC_NODE><ARG_OF_PERICENTER>223.1348</ARG_OF_PERICENTER><MEAN_ANOMALY>274.1556</MEAN_ANOMALY></meanElements><tleParameters><EPHEMERIS_TYPE>0</EPHEMERIS_TYPE><CLASSIFICATION_TYPE>U</CLASSIFICATION_TYPE><NORAD_CAT_ID>33062</NORAD_CAT_ID><ELEMENT_SET_NO>999</ELEMENT_SET_NO><REV_AT_EPOCH>82147</REV_AT_EPOCH><BSTAR>.48635E-3</BSTAR><MEAN_MOTION_DOT>.3158E-4</MEAN_MOTION_DOT><MEAN_MOTION_DDOT>0</MEAN_MOTION_DDOT></tleParameters></data></segment></body></omm>
<omm id="CCSDS_OMM_VERS" version="2.0">
<header><CREATION_DATE/><ORIGINATOR/></header><body><segment><metadata><OBJECT_NAME>ORBCOMM FM39 [-]</OBJECT_NAME><OBJECT_ID>2008-031D</OBJECT_ID><CENTER_NAME>EARTH</CENTER_NAME><REF_FRAME>TEME</REF_FRAME><TIME_SYSTEM>UTC</TIME_SYSTEM><MEAN_ELEMENT_THEORY>SGP4</MEAN_ELEMENT_THEORY></metadata><data><meanElements><EPOCH>2023-09-29T23:04:20.479296</EPOCH><MEAN_MOTION>14.74881751</MEAN_MOTION><ECCENTRICITY>.0008021</ECCENTRICITY><INCLINATION>48.4407</INCLINATION><RA_OF_ASC_NODE>79.5787</RA_OF_ASC_NODE><ARG_OF_PERICENTER>201.5167</ARG_OF_PERICENTER><MEAN_ANOMALY>158.5410</MEAN_ANOMALY></meanElements><tleParameters><EPHEMERIS_TYPE>0</EPHEMERIS_TYPE><CLASSIFICATION_TYPE>U</CLASSIFICATION_TYPE><NORAD_CAT_ID>33063</NORAD_CAT_ID><ELEMENT_SET_NO>999</ELEMENT_SET_NO><REV_AT_EPOCH>82122</REV_AT_EPOCH><BSTAR>.42629E-3</BSTAR><MEAN_MOTION_DOT>.2687E-4</MEAN_MOTION_DOT><MEAN_MOTION_DDOT>0</MEAN_MOTION_DDOT></tleParameters></data></segment></body></omm>

</ndm>
